{"type": "FeatureCollection", "features": [{"type":"Feature","geometry":{"type":"Point","coordinates":[-71.07,42.35159]},"properties":{"cartodb_id":1,"rack_street_address":"455 Fake Street","zip":"this is a string dummy","qty":1,"year":2000,"long":-71.07,"lat":42.35159,"field_7":"","field_8":"delete when you then export to geoJSON https://gis.stackexchange.com/questions/130131/how-to-map-places-with-zip-codes-that-have-leading-zeros-using-cartodb "}},{"type":"Feature","geometry":{"type":"Point","coordinates":[-71.072,42.35156]},"properties":{"cartodb_id":2,"rack_street_address":"399 Boylston Street","zip":"02116","qty":1,"year":2001,"long":-71.072,"lat":42.35156,"field_7":"","field_8":""}},{"type":"Feature","geometry":{"type":"Point","coordinates":[-71.0852,42.34889]},"properties":{"cartodb_id":3,"rack_street_address":"299 Newbury Street","zip":"02115","qty":1,"year":2001,"long":-71.0852,"lat":42.34889,"field_7":"","field_8":""}},{"type":"Feature","geometry":{"type":"Point","coordinates":[-71.0672,42.35193]},"properties":{"cartodb_id":4,"rack_street_address":"10 Park Plaza","zip":"02116","qty":1,"year":2001,"long":-71.0672,"lat":42.35193,"field_7":"","field_8":""}},{"type":"Feature","geometry":{"type":"Point","coordinates":[-71.0598,42.35615]},"properties":{"cartodb_id":5,"rack_street_address":"419 Washington Street","zip":"02108","qty":1,"year":2001,"long":-71.0598,"lat":42.35615,"field_7":"","field_8":""}},{"type":"Feature","geometry":{"type":"Point","coordinates":[-71.1317,42.35165]},"properties":{"cartodb_id":6,"rack_street_address":"155 Harvard Avenue","zip":"02134","qty":1,"year":2001,"long":-71.1317,"lat":42.35165,"field_7":"","field_8":""}},{"type":"Feature","geometry":{"type":"Point","coordinates":[-71.1327,42.35528]},"properties":{"cartodb_id":7,"rack_street_address":"3 Harvard Avenue","zip":"02134","qty":1,"year":2001,"long":-71.1327,"lat":42.35528,"field_7":"","field_8":""}},{"type":"Feature","geometry":{"type":"Point","coordinates":[-71.1326,42.35495]},"properties":{"cartodb_id":8,"rack_street_address":"28 Harvard Avenue","zip":"02134","qty":1,"year":2001,"long":-71.1326,"lat":42.35495,"field_7":"","field_8":""}},{"type":"Feature","geometry":{"type":"Point","coordinates":[-71.1287,42.35256]},"properties":{"cartodb_id":9,"rack_street_address":"72 Brighton Avenue","zip":"02134","qty":1,"year":2001,"long":-71.1287,"lat":42.35256,"field_7":"","field_8":""}},{"type":"Feature","geometry":{"type":"Point","coordinates":[-71.1315,42.35291]},"properties":{"cartodb_id":10,"rack_street_address":"130 Brighton Avenue","zip":"02134","qty":1,"year":2001,"long":-71.1315,"lat":42.35291,"field_7":"","field_8":""}},{"type":"Feature","geometry":{"type":"Point","coordinates":[-71.1317,42.35191]},"properties":{"cartodb_id":11,"rack_street_address":"144 Harvard Avenue","zip":"02134","qty":1,"year":2001,"long":-71.1317,"lat":42.35191,"field_7":"","field_8":""}},{"type":"Feature","geometry":{"type":"Point","coordinates":[-71.0643,42.31766]},"properties":{"cartodb_id":12,"rack_street_address":"614 Columbia Road","zip":"02125","qty":1,"year":2001,"long":-71.0643,"lat":42.31766,"field_7":"","field_8":""}},{"type":"Feature","geometry":{"type":"Point","coordinates":[-71.0664,42.31587]},"properties":{"cartodb_id":13,"rack_street_address":"540 Columbia Road","zip":"02125","qty":1,"year":2001,"long":-71.0664,"lat":42.31587,"field_7":"","field_8":""}},{"type":"Feature","geometry":{"type":"Point","coordinates":[-71.0663,42.31588]},"properties":{"cartodb_id":14,"rack_street_address":"531 Columbia Road","zip":"02125","qty":1,"year":2001,"long":-71.0663,"lat":42.31588,"field_7":"","field_8":""}},{"type":"Feature","geometry":{"type":"Point","coordinates":[-71.0535,42.3765]},"properties":{"cartodb_id":15,"rack_street_address":"150 3rd Avenue","zip":"02129","qty":2,"year":2001,"long":-71.0535,"lat":42.3765,"field_7":"","field_8":""}},{"type":"Feature","geometry":{"type":"Point","coordinates":[-71.1612,42.35108]},"properties":{"cartodb_id":16,"rack_street_address":"50 Beechcroft Street","zip":"02135","qty":2,"year":2001,"long":-71.1612,"lat":42.35108,"field_7":"","field_8":""}},{"type":"Feature","geometry":{"type":"Point","coordinates":[-71.0537,42.37653]},"properties":{"cartodb_id":17,"rack_street_address":"149 3rd Avenue","zip":"02129","qty":2,"year":2001,"long":-71.0537,"lat":42.37653,"field_7":"","field_8":""}},{"type":"Feature","geometry":{"type":"Point","coordinates":[-71.0729,42.35132]},"properties":{"cartodb_id":18,"rack_street_address":"443 Boylson Street","zip":"02116","qty":2,"year":2001,"long":-71.0729,"lat":42.35132,"field_7":"","field_8":""}},{"type":"Feature","geometry":{"type":"Point","coordinates":[-71.0873,42.34828]},"properties":{"cartodb_id":19,"rack_street_address":"350 Newbury Street","zip":"02115","qty":2,"year":2001,"long":-71.0873,"lat":42.34828,"field_7":"","field_8":""}},{"type":"Feature","geometry":{"type":"Point","coordinates":[-71.0674,42.31472]},"properties":{"cartodb_id":20,"rack_street_address":"500 Columbia Road","zip":"02125","qty":2,"year":2001,"long":-71.0674,"lat":42.31472,"field_7":"","field_8":""}},{"type":"Feature","geometry":{"type":"Point","coordinates":[-71.0717,42.29152]},"properties":{"cartodb_id":21,"rack_street_address":"576 Washington Street","zip":"02124","qty":2,"year":2001,"long":-71.0717,"lat":42.29152,"field_7":"","field_8":""}}]}